NORAD_CAT_ID,OBJECT_NAME,OBJECT_TYPE,EPOCH,MEAN_MOTION,ECCENTRICITY,INCLINATION,RA_OF_ASC_NODE,ARG_OF_PERICENTER,MEAN_ANOMALY,BSTAR,MEAN_MOTION_DOT,MEAN_MOTION_DDOT,TLE_LINE0,TLE_LINE1,TLE_LINE2,SEMIMAJOR_AXIS,PERIOD,APOGEE,PERIGEE,DECAYED
50161.0,STARLINK-3304,PAYLOAD,2023-02-27 08:43:52,15.08832141,0.0001083,53.2152,185.6108,106.2091,253.902,4.4536e-05,4.21e-06,0.0,0 STARLINK-3304,1 50161U 21125F   23058.36380654  .00000421  00000-0  44536-4 0  9990,2 50161  53.2152 185.6108 0001083 106.2091 253.9020 15.08832141 68955,6917.904,95.438,540.519,539.02,0.0
50161.0,STARLINK-3304,PAYLOAD,2023-02-27 13:30:01,15.08841234,0.0001323,53.2138,184.7181,106.005,254.1088,5.335e-05,5.61e-06,0.0,0 STARLINK-3304,1 50161U 21125F   23058.56251963  .00000561  00000-0  53350-4 0  9991,2 50161  53.2138 184.7181 0001323 106.0050 254.1088 15.08841234 68983,6917.877,95.437,540.657,538.826,0.0
50161.0,STARLINK-3304,PAYLOAD,2023-02-27 15:05:24,15.08845642,0.0001209,53.2149,184.418,121.5498,238.5612,-7.6954e-06,-4.1e-06,0.0,0 STARLINK-3304,1 50161U 21125F   23058.62875568 -.00000410  00000-0 -76954-5 0  9992,2 50161  53.2149 184.4180 0001209 121.5498 238.5612 15.08845642 69473,6917.863,95.437,540.565,538.892,0.0
50161.0,STARLINK-3304,PAYLOAD,2023-02-28 13:20:48,15.08835864,0.0001447,53.2149,180.2552,108.4194,251.6955,-0.00024019,-4.108e-05,0.0,0 STARLINK-3304,1 50161U 21125F   23059.55612191 -.00004108  00000-0 -24019-3 0  9997,2 50161  53.2149 180.2552 0001447 108.4194 251.6955 15.08835864 69618,6917.893,95.438,540.759,538.757,0.0
50161.0,STARLINK-3304,PAYLOAD,2023-02-28 18:06:58,15.08835384,0.0001283,53.2152,179.3648,90.8386,269.2753,-1.4367e-05,-5.16e-06,0.0,0 STARLINK-3304,1 50161U 21125F   23059.75484320 -.00000516  00000-0 -14367-4 0  9995,2 50161  53.2152 179.3648 0001283  90.8386 269.2753 15.08835384 69643,6917.894,95.438,540.647,538.872,0.0
50161.0,STARLINK-3304,PAYLOAD,2023-03-01 00:28:32,15.08815408,0.0001528,53.2154,178.1738,82.6764,277.4401,-0.00021931,-3.774e-05,0.0,0 STARLINK-3304,1 50161U 21125F   23060.01981585 -.00003774  00000-0 -21931-3 0  9994,2 50161  53.2154 178.1738 0001528  82.6764 277.4401 15.08815408 69201,6917.956,95.439,540.878,538.763,0.0
50161.0,STARLINK-3304,PAYLOAD,2023-03-01 13:11:38,15.08811635,0.0001505,53.2145,175.7961,105.713,254.4028,-9.421e-05,-1.786e-05,0.0,0 STARLINK-3304,1 50161U 21125F   23060.54974750 -.00001786  00000-0 -94210-4 0  9990,2 50161  53.2145 175.7961 0001505 105.7130 254.4028 15.08811635 69760,6917.967,95.439,540.873,538.791,0.0
50161.0,STARLINK-3304,PAYLOAD,2023-03-02 00:19:20,15.08827185,0.0001364,53.215,173.7153,91.8885,268.2263,0.00025228,3.728e-05,0.0,0 STARLINK-3304,1 50161U 21125F   23061.01342861  .00003728  00000-0  25228-3 0  9993,2 50161  53.2150 173.7153 0001364  91.8885 268.2263 15.08827185 69358,6917.92,95.438,540.728,538.841,0.0
50161.0,STARLINK-3304,PAYLOAD,2023-03-02 16:13:10,15.08887196,0.0001462,53.2145,170.7424,92.2068,267.9091,0.0017436,0.00027606,0.0,0 STARLINK-3304,1 50161U 21125F   23061.67581750  .00027606  00000-0  17436-2 0  9999,2 50161  53.2145 170.7424 0001462  92.2068 267.9091 15.08887196 69934,6917.736,95.435,540.613,538.59,0.0
50161.0,STARLINK-3304,PAYLOAD,2023-03-03 08:07:01,15.08877567,0.0001201,53.2147,167.7689,115.1931,244.9185,0.001827,0.00028938,0.0,0 STARLINK-3304,1 50161U 21125F   23062.33821124  .00028938  00000-0  18270-2 0  9991,2 50161  53.2147 167.7689 0001201 115.1931 244.9185 15.08877567 69558,6917.766,95.435,540.461,538.8,0.0
50161.0,STARLINK-3304,PAYLOAD,2023-03-03 11:17:47,15.08877619,6.21e-05,53.2145,167.1744,88.676,271.4304,0.0022589,0.00035883,0.0,0 STARLINK-3304,1 50161U 21125F   23062.47069026  .00035883  00000-0  22589-2 0  9996,2 50161  53.2145 167.1744 0000621  88.6760 271.4304 15.08877619 70054,6917.765,95.435,540.06,539.201,0.0
50161.0,STARLINK-3304,PAYLOAD,2023-03-03 16:03:56,15.08888961,0.0001241,53.2145,166.2822,108.4361,251.6766,0.00238,0.00037844,0.0,0 STARLINK-3304,1 50161U 21125F   23062.66940519  .00037844  00000-0  23800-2 0  9998,2 50161  53.2145 166.2822 0001241 108.4361 251.6766 15.08888961 70085,6917.731,95.434,540.454,538.737,0.0
50161.0,STARLINK-3304,PAYLOAD,2023-03-04 06:22:25,15.08870416,0.0003107,53.2151,163.6063,81.2818,278.8526,0.0023369,0.00037133,0.0,0 STARLINK-3304,1 50161U 21125F   23063.26557305  .00037133  00000-0  23369-2 0  9993,2 50161  53.2151 163.6063 0003107  81.2818 278.8526 15.08870416 69694,6917.787,95.436,541.802,537.503,0.0
50161.0,STARLINK-3304,PAYLOAD,2023-03-04 11:08:34,15.0885079,0.0001409,53.2158,162.7143,91.0426,269.0728,0.0020444,0.00032408,0.0,0 STARLINK-3304,1 50161U 21125F   23063.46429077  .00032408  00000-0  20444-2 0  9990,2 50161  53.2158 162.7143 0001409  91.0426 269.0728 15.08850790 70205,6917.847,95.437,540.687,538.738,0.0
50161.0,STARLINK-3304,PAYLOAD,2023-03-04 12:43:57,15.08859881,0.0001377,53.2152,162.4166,83.9095,276.2054,0.0024007,0.00038147,0.0,0 STARLINK-3304,1 50161U 21125F   23063.53052987  .00038147  00000-0  24007-2 0  9995,2 50161  53.2152 162.4166 0001377  83.9095 276.2054 15.08859881 69735,6917.82,95.436,540.637,538.732,0.0
50161.0,STARLINK-3304,PAYLOAD,2023-03-04 23:51:40,15.08846942,0.0001768,53.2149,160.3357,88.6927,271.4268,0.0011253,0.0001767,0.0,0 STARLINK-3304,1 50161U 21125F   23063.99421361  .00017670  00000-0  11253-2 0  9998,2 50161  53.2149 160.3357 0001768  88.6927 271.4268 15.08846942 69806,6917.859,95.437,540.947,538.501,0.0
50161.0,STARLINK-3304,PAYLOAD,2023-03-06 06:03:59,15.08845254,0.0001517,53.2164,154.6845,100.1646,259.9518,0.00048329,7.413e-05,0.0,0 STARLINK-3304,1 50161U 21125F   23065.25277465  .00007413  00000-0  48329-3 0  9992,2 50161  53.2164 154.6845 0001517 100.1646 259.9518 15.08845254 69995,6917.864,95.437,540.779,538.68,0.0
50161.0,STARLINK-3304,PAYLOAD,2023-03-06 10:50:08,15.08860999,0.0001504,53.216,153.7934,101.3823,258.7338,0.00080217,0.00012509,0.0,0 STARLINK-3304,1 50161U 21125F   23065.45149015  .00012509  00000-0  80217-3 0  9997,2 50161  53.2160 153.7934 0001504 101.3823 258.7338 15.08860999 70022,6917.816,95.436,540.722,538.641,0.0
50161.0,STARLINK-3304,PAYLOAD,2023-03-06 17:11:40,15.08897528,0.0001185,53.2154,152.6047,85.5386,274.5741,0.0017916,0.00028385,0.0,0 STARLINK-3304,1 50161U 21125F   23065.71644043  .00028385  00000-0  17916-2 0  9991,2 50161  53.2154 152.6047 0001185  85.5386 274.5741 15.08897528 70066,6917.705,95.434,540.389,538.75,0.0
50161.0,STARLINK-3304,PAYLOAD,2023-03-06 21:57:51,15.08813505,0.0001555,53.2155,151.7126,94.1318,265.9852,-0.00049002,-8.073e-05,0.0,0 STARLINK-3304,1 50161U 21125F   23065.91517388 -.00008073  00000-0 -49002-3 0  9990,2 50161  53.2155 151.7126 0001555  94.1318 265.9852 15.08813505 70573,6917.961,95.439,540.902,538.751,0.0
50161.0,STARLINK-3304,PAYLOAD,2023-03-07 05:54:46,15.08836317,0.0001127,53.2156,150.2253,111.6499,248.4613,0.00094582,0.00014795,0.0,0 STARLINK-3304,1 50161U 21125F   23066.24637431  .00014795  00000-0  94582-3 0  9998,2 50161  53.2156 150.2253 0001127 111.6499 248.4613 15.08836317 70149,6917.892,95.438,540.536,538.977,0.0
50161.0,STARLINK-3304,PAYLOAD,2023-03-07 17:02:28,15.08878765,0.0001062,53.2155,148.1437,109.0671,251.0437,0.0038405,0.00061432,0.0,0 STARLINK-3304,1 50161U 21125F   23066.71005183  .00061432  00000-0  38405-2 0  9994,2 50161  53.2155 148.1437 0001062 109.0671 251.0437 15.08878765 70214,6917.762,95.435,540.362,538.892,0.0
50161.0,STARLINK-3304,PAYLOAD,2023-03-07 21:48:38,15.08828765,0.0001453,53.2154,147.2521,79.4856,280.63,0.0021939,0.0003479,0.0,0 STARLINK-3304,1 50161U 21125F   23066.90877911  .00034790  00000-0  21939-2 0  9992,2 50161  53.2154 147.2521 0001453  79.4856 280.6300 15.08828765 70724,6917.915,95.438,540.785,538.775,0.0
50161.0,STARLINK-3304,PAYLOAD,2023-03-08 05:45:34,15.08821213,0.0001007,53.2152,145.7649,81.9797,278.1309,0.0028376,0.00045138,0.0,0 STARLINK-3304,1 50161U 21125F   23067.23998249  .00045138  00000-0  28376-2 0  9997,2 50161  53.2152 145.7649 0001007  81.9797 278.1309 15.08821213 70297,6917.938,95.439,540.499,539.106,0.0
50161.0,STARLINK-3304,PAYLOAD,2023-03-08 21:39:26,15.08844242,0.0001491,53.215,142.7916,61.191,298.9232,0.0040097,0.00064115,0.0,0 STARLINK-3304,1 50161U 21125F   23067.90238482  .00064115  00000-0  40097-2 0  9997,2 50161  53.2150 142.7916 0001491  61.1910 298.9232 15.08844242 70396,6917.867,95.437,540.764,538.701,0.0
50161.0,STARLINK-3304,PAYLOAD,2023-03-09 13:33:16,15.08892399,0.0001385,53.2145,139.8173,59.8258,300.2871,0.0035594,0.00056899,0.0,0 STARLINK-3304,1 50161U 21125F   23068.56477598  .00056899  00000-0  35594-2 0  9999,2 50161  53.2145 139.8173 0001385  59.8258 300.2871 15.08892399 70496,6917.72,95.434,540.543,538.627,0.0
50161.0,STARLINK-3304,PAYLOAD,2023-03-09 21:30:12,15.08859233,0.0001003,53.2141,138.3309,78.3976,281.7129,0.0032531,0.00051894,0.0,0 STARLINK-3304,1 50161U 21125F   23068.89597378  .00051894  00000-0  32531-2 0  9992,2 50161  53.2141 138.3309 0001003  78.3976 281.7129 15.08859233 71026,6917.822,95.436,540.38,538.993,0.0
50161.0,STARLINK-3304,PAYLOAD,2023-03-10 05:27:08,15.08802233,8.79e-05,53.2138,136.8442,98.2519,261.8573,0.002869,0.0004562,0.0,0 STARLINK-3304,1 50161U 21125F   23069.22718266  .00045620  00000-0  28690-2 0  9992,2 50161  53.2138 136.8442 0000879  98.2519 261.8573 15.08802233 70598,6917.996,95.44,540.469,539.253,0.0
50161.0,STARLINK-3304,PAYLOAD,2023-03-10 21:21:00,15.08833301,8.77e-05,53.2134,133.8705,105.0172,255.0917,0.0031,0.00049385,0.0,0 STARLINK-3304,1 50161U 21125F   23069.88959037  .00049385  00000-0  31000-2 0  9998,2 50161  53.2134 133.8705 0000877 105.0172 255.0917 15.08833301 71175,6917.901,95.438,540.373,539.159,0.0
50161.0,STARLINK-3304,PAYLOAD,2023-03-11 05:17:56,15.08853452,0.0001577,53.2148,132.3827,97.481,262.6361,0.0023351,0.00037085,0.0,0 STARLINK-3304,1 50161U 21125F   23070.22079354  .00037085  00000-0  23351-2 0  9997,2 50161  53.2148 132.3827 0001577  97.4810 262.6361 15.08853452 70748,6917.839,95.437,540.795,538.613,0.0
